[{"OBJECT_NAME":"GLOBALSTAR M085","OBJECT_ID":"2011-033D","EPOCH":"2026-03-09T12:08:03.063264","MEAN_MOTION":12.62269695,"ECCENTRICITY":7.483e-5,"INCLINATION":52.0119,"RA_OF_ASC_NODE":136.5937,"ARG_OF_PERICENTER":109.258,"MEAN_ANOMALY":354.277,"EPHEMERIS_TYPE":0,"CLASSIFICATION_TYPE":"U","NORAD_CAT_ID":37742,"ELEMENT_SET_NO":999,"REV_AT_EPOCH":67720,"BSTAR":0.00012590606,"MEAN_MOTION_DOT":-8.1e-7,"MEAN_MOTION_DDOT":0},{"OBJECT_NAME":"COSMOS 2253","OBJECT_ID":"1993-038B","EPOCH":"2026-03-09T18:16:54.418944","MEAN_MOTION":12.61598248,"ECCENTRICITY":0.00108362,"INCLINATION":82.5898,"RA_OF_ASC_NODE":320.642,"ARG_OF_PERICENTER":231.8676,"MEAN_ANOMALY":128.1439,"EPHEMERIS_TYPE":0,"CLASSIFICATION_TYPE":"U","NORAD_CAT_ID":22688,"ELEMENT_SET_NO":999,"REV_AT_EPOCH":50596,"BSTAR":8.564287e-5,"MEAN_MOTION_DOT":2.6e-7,"MEAN_MOTION_DDOT":0}]
